IRIDIUM 8 [+]           
1 24792U 97020A   17231.30728958  .00000128  00000-0  38680-4 0  9998
2 24792  86.3956 292.2998 0002207  95.1274 265.0174 14.34218895 62247
IRIDIUM 7 [+]           
1 24793U 97020B   17231.16121753  .00000053  00000-0  11995-4 0  9990
2 24793  86.3961 292.6488 0002186  89.9670 270.1776 14.34223814 62229
IRIDIUM 6 [+]           
1 24794U 97020C   17231.29460489  .00000064  00000-0  15900-4 0  9999
2 24794  86.3956 292.5211 0002320  95.2441 264.9019 14.34218381 62249
IRIDIUM 5 [+]           
1 24795U 97020D   17231.28823281  .00000037  00000-0  62440-5 0  9994
2 24795  86.3964 292.5423 0002399  93.2818 266.8652 14.34216564 62320
IRIDIUM 4 [-]           
1 24796U 97020E   17231.31101561  .00000098  00000-0  27317-4 0  9999
2 24796  86.3953 291.4163 0002206  92.5883 320.8212 14.35169644 62352
IRIDIUM 914 [-]         
1 24836U 97030A   17231.20359491  .00000105  00000-0  27620-4 0  9996
2 24836  86.3954 308.0541 0000630 115.3736 244.7528 14.38770925 58007
IRIDIUM 12 [+]          
1 24837U 97030B   17231.38265998  .00000179  00000-0  56720-4 0  9998
2 24837  86.3988 323.6739 0002227  93.9815 309.6073 14.34222592 56002
IRIDIUM 10 [+]          
1 24839U 97030D   17231.36973437  .00000168  00000-0  52805-4 0  9990
2 24839  86.3988 323.6587 0002217  93.8474 308.5990 14.34218315 56019
IRIDIUM 13 [+]          
1 24840U 97030E   17231.52011090  .00000164  00000-0  51344-4 0  9991
2 24840  86.3985 323.7147 0003220  93.7067 266.4497 14.34233721 56059
IRIDIUM 16 [-]          
1 24841U 97030F   17231.37064896 -.00000054  00000-0 -25037-4 0  9997
2 24841  86.4068 323.5539 0004411  84.7542 275.4158 14.36728068 56652
IRIDIUM 911 [-]         
1 24842U 97030G   17230.98794171  .00000070  00000-0  14358-4 0  9990
2 24842  86.4496 324.4607 0012588 237.6002 122.3982 14.44973534 62019
IRIDIUM 15 [+]          
1 24869U 97034A   17231.46430828  .00000101  00000-0  26451-4 0  9995
2 24869  86.4219 355.6003 0002502 103.8638 256.2838 14.38609723 53039
IRIDIUM 17 [-]          
1 24870U 97034B   17231.45090647  .00000072  00000-0  17961-4 0  9990
2 24870  86.4000 353.6618 0003014  56.0820 304.0663 14.35769178 53250
IRIDIUM 920 [-]         
1 24871U 97034C   17231.42169382  .00000040  00000-0  63880-5 0  9998
2 24871  86.4013 339.7115 0013525 126.4464 233.7983 14.39481722 55453
IRIDIUM 18 [+]          
1 24872U 97034D   17231.38841267  .00000120  00000-0  32824-4 0  9995
2 24872  86.4245 355.6451 0002680 105.1410 255.0085 14.38610117 53006
IRIDIUM 921 [-]         
1 24873U 97034E   17231.53746096  .00001500  00000-0  86629-4 0  9992
2 24873  86.3918  36.0250 0009535 130.8807 229.3259 15.11435315 97665
IRIDIUM 26 [-]          
1 24903U 97043A   17231.53217765  .00000101  00000-0  28471-4 0  9999
2 24903  86.3950 228.2611 0002413  90.8916 269.2557 14.35266659 47055
IRIDIUM 25 [+]          
1 24904U 97043B   17231.42102602  .00000018  00000-0 -59832-6 0  9996
2 24904  86.3942 228.9767 0002327  88.2459 271.9004 14.34217984 46897
IRIDIUM 46 [+]          
1 24905U 97043C   17231.43363353 -.00000041  00000-0 -21574-4 0  9997
2 24905  86.3949 228.9577 0002562  96.4343 263.7145 14.34216274 46894
IRIDIUM 23 [+]          
1 24906U 97043D   17231.44851287 -.00000066  00000-0 -30771-4 0  9993
2 24906  86.3956 229.0246 0002218  90.0827  19.4397 14.34215554 46900
IRIDIUM 22 [+]          
1 24907U 97043E   17231.47169450 -.00000059  00000-0 -28172-4 0  9995
2 24907  86.3952 229.6320 0002223  87.0091 273.1359 14.34216272 46906
DUMMY MASS 1 [-]        
1 24925U 97048A   17230.97888805  .00000070  00000-0  48643-5 0  9993
2 24925  86.3365  14.4514 0007428 161.7631 198.3860 14.85141134 80904
DUMMY MASS 2 [-]        
1 24926U 97048B   17231.49889334  .00000070  00000-0  48771-5 0  9992
2 24926  86.3364  15.3378 0007955 169.3649 190.7745 14.84909188 80829
IRIDIUM 29 [-]          
1 24944U 97051A   17231.51419090  .00000115  00000-0  33720-4 0  9994
2 24944  86.3932 260.3754 0002041  93.4205 266.7225 14.34613613 43518
IRIDIUM 32 [+]          
1 24945U 97051B   17231.08188648  .00000035  00000-0  54587-5 0  9995
2 24945  86.3927 260.7911 0002232  94.3651 265.7800 14.34222303 43430
IRIDIUM 33 [-]          
1 24946U 97051C   17231.49224181  .00000094  00000-0  26964-4 0  9996
2 24946  86.3845 260.2228 0009408  48.4886 311.7115 14.33562598 43105
IRIDIUM 28 [-]          
1 24948U 97051E   17231.55756426  .00000109  00000-0  30998-4 0  9996
2 24948  86.3935 259.5509 0002586  89.8413 270.3080 14.35561756 43675
IRIDIUM 30 [+]          
1 24949U 97051F   17231.51316467  .00441432 -97202-6  65072-3 0  9995
2 24949  86.3869 259.6824 0345203 306.7887  50.2140 15.46064169 43610
IRIDIUM 31 [+]          
1 24950U 97051G   17231.13891048  .00000033  00000-0  46526-5 0  9994
2 24950  86.3928 260.8623 0002186  90.5058 269.6388 14.34218290 43439
IRIDIUM 19 [+]          
1 24965U 97056A   17231.54196535  .00000104  00000-0  30153-4 0  9996
2 24965  86.3953 292.2128 0002224  93.6837 266.4613 14.34218188 41636
IRIDIUM 35 [+]          
1 24966U 97056B   17231.55465341  .00000099  00000-0  28193-4 0  9996
2 24966  86.3953 292.2011 0002254  94.2877 265.8576 14.34218421 41611
IRIDIUM 36 [-]          
1 24967U 97056C   17231.28125939  .00000096  00000-0  26575-4 0  9992
2 24967  86.3968 291.3230 0002150  88.4944 271.6499 14.35614013 41916
IRIDIUM 37 [+]          
1 24968U 97056D   17231.52928056  .00000159  00000-0  49820-4 0  9999
2 24968  86.3957 292.4001 0002196  93.7653 266.3794 14.34218865 41619
IRIDIUM 34 [+]          
1 24969U 97056E   17231.26923301  .00000159  00000-0  49722-4 0  9990
2 24969  86.3953 292.4451 0002357  92.5952 267.5514 14.34219847 41572
IRIDIUM 43 [-]          
1 25039U 97069A   17231.53978322  .00164291  47727-5  91816-3 0  9996
2 25039  86.4050 348.5961 0285689 161.6677 199.5141 15.39452366 36353
IRIDIUM 41 [+]          
1 25040U 97069B   17231.46023901  .00000134  00000-0  40777-4 0  9998
2 25040  86.3996 355.5046 0002358  96.0624 264.0840 14.34214793 35388
IRIDIUM 40 [-]          
1 25041U 97069C   17231.42500461  .00056695 -61645-6  49414-3 0  9994
2 25041  86.3903 346.5170 0264782  38.9013 323.0962 15.35196086 36640
IRIDIUM 39 [B]          
1 25042U 97069D   17231.46602695  .00000109  00000-0  24604-4 0  9996
2 25042  86.3958 352.2108 0021226 101.5775 258.7812 14.46172443 35865
IRIDIUM 38 [-]          
1 25043U 97069E   17231.49021506  .00000078  00000-0  20062-4 0  9995
2 25043  86.3999 352.5959 0003581  85.3564 274.8042 14.36042384 35815
IRIDIUM 42 [-]          
1 25077U 97077A   17231.45574403  .00000075  00000-0  19477-4 0  9991
2 25077  86.4003 355.4459 0002654  88.4904 271.6596 14.34515048 31262
IRIDIUM 44 [-]          
1 25078U 97077B   17231.46228519  .00000088  00000-0  22447-4 0  9992
2 25078  86.4003 344.8642 0003835  78.1741 281.9887 14.38138205 32725
IRIDIUM 45 [+]          
1 25104U 97082A   17230.57449076 -.00000054  00000-0 -26207-4 0  9995
2 25104  86.3928 261.1268 0003160  91.7314 268.4244 14.34220225 29311
IRIDIUM 24 [-]          
1 25105U 97082B   17231.49219582  .00000101  00000-0  25674-4 0  9993
2 25105  86.3929 208.7204 0013227 129.1236 231.1141 14.39867773 31961
IRIDIUM 47 [+]          
1 25106U 97082C   17231.43999120 -.00000042  00000-0 -22023-4 0  9992
2 25106  86.3940 228.8377 0002203  89.8235 270.3213 14.34216379 29431
IRIDIUM 49 [+]          
1 25108U 97082E   17231.47412792 -.00000054  00000-0 -26388-4 0  9994
2 25108  86.3942 228.9279 0002237  88.7694  22.0338 14.34215997 29447
IRIDIUM 52 [+]          
1 25169U 98010A   17231.41227624  .00000128  00000-0  38648-4 0  9997
2 25169  86.3993 323.9616 0002190  93.6861 266.4585 14.34218932 20845
IRIDIUM 56 [+]          
1 25170U 98010B   17231.40593271  .00000217  00000-0  70375-4 0  9994
2 25170  86.4011 324.0750 0002525  92.9582 267.1903 14.34218803 20821
IRIDIUM 54 [+]          
1 25171U 98010C   17231.36799546  .00000168  00000-0  53055-4 0  9994
2 25171  86.3993 324.0014 0002211  93.3150 266.8299 14.34221272 20986
IRIDIUM 50 [+]          
1 25172U 98010D   17231.39959737  .00000169  00000-0  53238-4 0  9992
2 25172  86.3993 323.9440 0002134  94.5216 265.6223 14.34220020 20825
IRIDIUM 53 [+]          
1 25173U 98010E   17231.34898623  .00000173  00000-0  54620-4 0  9995
2 25173  86.3993 323.9718 0002220  93.1317 267.0133 14.34221431 20820
IRIDIUM 51 [S]          
1 25262U 98018A   17231.30094470  .00000054  00000-0  12089-4 0  9997
2 25262  86.3973 292.6614 0002214 108.3063 251.8374 14.34221543 20208
IRIDIUM 61 [+]          
1 25263U 98018B   17231.53562291  .00000124  00000-0  37274-4 0  9995
2 25263  86.3956 292.3627 0002237  94.6139 265.5312 14.34218715 15943
IRIDIUM 55 [+]          
1 25272U 98019A   17231.51134288  .00000075  00000-0  18064-4 0  9996
2 25272  86.4187 260.5189 0002284 100.6773 259.4683 14.38607464 15135
IRIDIUM 57 [-]          
1 25273U 98019B   17231.50318984  .00000111  00000-0  32610-4 0  9997
2 25273  86.3934 260.8370 0002108  90.9968 269.1470 14.34272082 15145
IRIDIUM 58 [+]          
1 25274U 98019C   17230.68223129 -.00000033  00000-0 -18982-4 0  9993
2 25274  86.3935 261.3761 0002193  92.2882 267.8565 14.34218222 15024
IRIDIUM 59 [+]          
1 25275U 98019D   17230.68866535 -.00000047  00000-0 -23671-4 0  9994
2 25275  86.3930 261.2229 0002070  90.0602 270.0831 14.34220584 15024
IRIDIUM 60 [+]          
1 25276U 98019E   17230.62524869 -.00000054  00000-0 -26203-4 0  9992
2 25276  86.3927 260.8665 0002181  89.5790 270.5655 14.34220028 15015
IRIDIUM 62 [+]          
1 25285U 98021A   17231.42395336  .00000012  00000-0 -26330-5 0  9994
2 25285  86.3987 197.4741 0002208  86.0890 274.0558 14.34213601 14080
IRIDIUM 63 [-]          
1 25286U 98021B   17231.56948541  .00000078  00000-0  20495-4 0  9998
2 25286  86.4015 197.8261 0002134  89.9937  32.7667 14.34674951 14132
